0 COSMOS 445
1 05548U 71086B   13280.51221459  .00000019  00000-0  19943-3 0  8591
2 05548 074.0288 064.8450 0102516 116.1539 310.7168 12.58153386928402
0 COSMOS 445
1 05548U 71086B   13282.82723600 -.00000012  00000-0  20662-4 0  8609
2 05548 074.0292 061.7206 0102484 112.6003 356.2835 12.58153600928699
0 COSMOS 445
1 05548U 71086B   13287.50969750 -.00000032  00000-0 -95984-4 0  8621
2 05548 074.0304 055.4012 0102450 105.4047 324.8546 12.58153847929288
0 COSMOS 445
1 05548U 71086B   13289.82476627 -.00000011  00000-0  27313-4 0  8632
2 05548 074.0308 052.2774 0102418 101.8440 010.6472 12.58153476929571
0 COSMOS 445
1 05548U 71086B   13292.05126456  .00000008  00000-0  13914-3 0  8640
2 05548 074.0310 049.2730 0102401 098.4097 015.2794 12.58153418929858
0 COSMOS 445
1 05548U 71086B   13294.50913895  .00000000  00000-0  92586-4 0  8659
2 05548 074.0310 045.9563 0102411 094.6335 347.8834 12.58153628930167
